{
  "type": "FeatureCollection",
  "features": [
    {
      "type": "Feature",
      "properties": {
        "norad_id": 51444,
        "name": "CSG-2",
        "group": "resource",
        "lat": -37.62041303621799,
        "lon": 170.7411944954305,
        "alt_km": 629.4640776260812,
        "timestamp": "2025-12-09T05:43:20.385637+00:00",
        "meta_object_name": "CSG-2",
        "meta_object_id": "2022-008A",
        "meta_epoch": "2025-12-08T20:10:19.718400",
        "meta_mean_motion": 14.82156963,
        "meta_eccentricity": 0.0001507,
        "meta_inclination": 97.8801,
        "meta_ra_of_asc_node": 164.2221,
        "meta_arg_of_pericenter": 82.7944,
        "meta_mean_anomaly": 277.344,
        "meta_ephemeris_type": 0,
        "meta_classification_type": "U",
        "meta_norad_cat_id": 51444,
        "meta_element_set_no": 999,
        "meta_rev_at_epoch": 20839,
        "meta_bstar": 7.7145e-05,
        "meta_mean_motion_dot": 5.62e-06,
        "meta_mean_motion_ddot": 0,
        "tle_line1": "1 51444U 22008A   25342.84050600  .00000562  00000+0  77145-4 0  9999",
        "tle_line2": "2 51444  97.8801 164.2221 0001507  82.7944 277.3440 14.82156963208392"
      },
      "geometry": {
        "type": "Point",
        "coordinates": [
          170.7411944954305,
          -37.62041303621799
        ]
      }
    },
    {
      "type": "Feature",
      "properties": {
        "norad_id": 52912,
        "name": "GAOFEN-12 03",
        "group": "resource",
        "lat": -82.1055700633133,
        "lon": -45.204906239365,
        "alt_km": 639.4041983296911,
        "timestamp": "2025-12-09T05:43:20.385648+00:00",
        "meta_object_name": "GAOFEN-12 03",
        "meta_object_id": "2022-069A",
        "meta_epoch": "2025-12-08T20:23:12.238944",
        "meta_mean_motion": 14.79594897,
        "meta_eccentricity": 0.0002289,
        "meta_inclination": 97.8483,
        "meta_ra_of_asc_node": 230.2879,
        "meta_arg_of_pericenter": 66.4888,
        "meta_mean_anomaly": 293.6564,
        "meta_ephemeris_type": 0,
        "meta_classification_type": "U",
        "meta_norad_cat_id": 52912,
        "meta_element_set_no": 999,
        "meta_rev_at_epoch": 18646,
        "meta_bstar": 0.00027232,
        "meta_mean_motion_dot": 1.99e-05,
        "meta_mean_motion_ddot": 0,
        "tle_line1": "1 52912U 22069A   25342.84944721  .00001990  00000+0  27232-3 0  9990",
        "tle_line2": "2 52912  97.8483 230.2879 0002289  66.4888 293.6564 14.79594897186465"
      },
      "geometry": {
        "type": "Point",
        "coordinates": [
          -45.204906239365,
          -82.1055700633133
        ]
      }
    },
    {
      "type": "Feature",
      "properties": {
        "norad_id": 54754,
        "name": "SWOT",
        "group": "resource",
        "lat": 14.818878922235974,
        "lon": 108.38249439048315,
        "alt_km": 893.6440745409764,
        "timestamp": "2025-12-09T05:43:20.385658+00:00",
        "meta_object_name": "SWOT",
        "meta_object_id": "2022-173A",
        "meta_epoch": "2025-12-08T20:21:49.686336",
        "meta_mean_motion": 14.00173921,
        "meta_eccentricity": 3.46e-05,
        "meta_inclination": 77.6103,
        "meta_ra_of_asc_node": 292.2426,
        "meta_arg_of_pericenter": 122.8059,
        "meta_mean_anomaly": 237.3126,
        "meta_ephemeris_type": 0,
        "meta_classification_type": "U",
        "meta_norad_cat_id": 54754,
        "meta_element_set_no": 999,
        "meta_rev_at_epoch": 15251,
        "meta_bstar": 9.0593e-05,
        "meta_mean_motion_dot": 1.31e-06,
        "meta_mean_motion_ddot": 0,
        "tle_line1": "1 54754U 22173A   25342.84849174  .00000131  00000+0  90593-4 0  9995",
        "tle_line2": "2 54754  77.6103 292.2426 0000346 122.8059 237.3126 14.00173921152514"
      },
      "geometry": {
        "type": "Point",
        "coordinates": [
          108.38249439048315,
          14.818878922235974
        ]
      }
    },
    {
      "type": "Feature",
      "properties": {
        "norad_id": 57654,
        "name": "GAOFEN-12 04",
        "group": "resource",
        "lat": 76.67880206014821,
        "lon": -136.91809142559663,
        "alt_km": 622.1180169066201,
        "timestamp": "2025-12-09T05:43:20.385668+00:00",
        "meta_object_name": "GAOFEN-12 04",
        "meta_object_id": "2023-123A",
        "meta_epoch": "2025-12-08T21:15:02.890368",
        "meta_mean_motion": 14.79684083,
        "meta_eccentricity": 0.0001389,
        "meta_inclination": 97.9118,
        "meta_ra_of_asc_node": 258.7011,
        "meta_arg_of_pericenter": 73.6968,
        "meta_mean_anomaly": 286.4396,
        "meta_ephemeris_type": 0,
        "meta_classification_type": "U",
        "meta_norad_cat_id": 57654,
        "meta_element_set_no": 999,
        "meta_rev_at_epoch": 12448,
        "meta_bstar": 0.00037415,
        "meta_mean_motion_dot": 2.758e-05,
        "meta_mean_motion_ddot": 0,
        "tle_line1": "1 57654U 23123A   25342.88545012  .00002758  00000+0  37415-3 0  9991",
        "tle_line2": "2 57654  97.9118 258.7011 0001389  73.6968 286.4396 14.79684083124485"
      },
      "geometry": {
        "type": "Point",
        "coordinates": [
          -136.91809142559663,
          76.67880206014821
        ]
      }
    },
    {
      "type": "Feature",
      "properties": {
        "norad_id": 59065,
        "name": "PARS 1",
        "group": "resource",
        "lat": 64.36849429215127,
        "lon": -61.759971489437916,
        "alt_km": 429.05591724375336,
        "timestamp": "2025-12-09T05:43:20.385679+00:00",
        "meta_object_name": "PARS 1",
        "meta_object_id": "2024-039Q",
        "meta_epoch": "2025-12-08T21:38:49.007904",
        "meta_mean_motion": 15.40844551,
        "meta_eccentricity": 0.0012684,
        "meta_inclination": 97.4637,
        "meta_ra_of_asc_node": 313.7538,
        "meta_arg_of_pericenter": 83.5995,
        "meta_mean_anomaly": 276.6695,
        "meta_ephemeris_type": 0,
        "meta_classification_type": "U",
        "meta_norad_cat_id": 59065,
        "meta_element_set_no": 999,
        "meta_rev_at_epoch": 9929,
        "meta_bstar": 0.00038617,
        "meta_mean_motion_dot": 0.00015812,
        "meta_mean_motion_ddot": 0,
        "tle_line1": "1 59065U 24039Q   25342.90195611  .00015812  00000+0  38617-3 0  9995",
        "tle_line2": "2 59065  97.4637 313.7538 0012684  83.5995 276.6695 15.40844551 99290"
      },
      "geometry": {
        "type": "Point",
        "coordinates": [
          -61.759971489437916,
          64.36849429215127
        ]
      }
    },
    {
      "type": "Feature",
      "properties": {
        "norad_id": 59371,
        "name": "RESURS-P 4",
        "group": "resource",
        "lat": -40.71513504410308,
        "lon": -64.06601268591706,
        "alt_km": 476.4008300198275,
        "timestamp": "2025-12-09T05:43:20.385689+00:00",
        "meta_object_name": "RESURS-P 4",
        "meta_object_id": "2024-061A",
        "meta_epoch": "2025-12-08T20:29:46.051872",
        "meta_mean_motion": 15.32039203,
        "meta_eccentricity": 0.0001788,
        "meta_inclination": 97.2544,
        "meta_ra_of_asc_node": 289.2637,
        "meta_arg_of_pericenter": 53.1663,
        "meta_mean_anomaly": 306.9743,
        "meta_ephemeris_type": 0,
        "meta_classification_type": "U",
        "meta_norad_cat_id": 59371,
        "meta_element_set_no": 999,
        "meta_rev_at_epoch": 9461,
        "meta_bstar": 0.00020235,
        "meta_mean_motion_dot": 6.183e-05,
        "meta_mean_motion_ddot": 0,
        "tle_line1": "1 59371U 24061A   25342.85400523  .00006183  00000+0  20235-3 0  9993",
        "tle_line2": "2 59371  97.2544 289.2637 0001788  53.1663 306.9743 15.32039203 94613"
      },
      "geometry": {
        "type": "Point",
        "coordinates": [
          -64.06601268591706,
          -40.71513504410308
        ]
      }
    },
    {
      "type": "Feature",
      "properties": {
        "norad_id": 59625,
        "name": "LEGION 1",
        "group": "resource",
        "lat": 20.17031772809861,
        "lon": 55.124922291581875,
        "alt_km": 514.7824140587991,
        "timestamp": "2025-12-09T05:43:20.385700+00:00",
        "meta_object_name": "LEGION 1",
        "meta_object_id": "2024-081A",
        "meta_epoch": "2025-12-08T18:32:49.831008",
        "meta_mean_motion": 15.16420231,
        "meta_eccentricity": 0.0004289,
        "meta_inclination": 97.5213,
        "meta_ra_of_asc_node": 57.4452,
        "meta_arg_of_pericenter": 334.3109,
        "meta_mean_anomaly": 25.791,
        "meta_ephemeris_type": 0,
        "meta_classification_type": "U",
        "meta_norad_cat_id": 59625,
        "meta_element_set_no": 999,
        "meta_rev_at_epoch": 8867,
        "meta_bstar": 0.00041511,
        "meta_mean_motion_dot": 8.005e-05,
        "meta_mean_motion_ddot": 0,
        "tle_line1": "1 59625U 24081A   25342.77279897  .00008005  00000+0  41511-3 0  9991",
        "tle_line2": "2 59625  97.5213  57.4452 0004289 334.3109  25.7910 15.16420231 88677"
      },
      "geometry": {
        "type": "Point",
        "coordinates": [
          55.124922291581875,
          20.17031772809861
        ]
      }
    }
  ]
}